GLOBALSTAR M001         
1 25162U 98008A   24145.83500814 -.00000092  00000+0  39476-4 0  9990
2 25162  52.0060  23.5296 0001962 127.0492 311.8361 12.38184755195609
GLOBALSTAR M004         
1 25163U 98008B   24145.80571742 -.00000067  00000+0  20476-3 0  9997
2 25163  51.9971 158.9796 0002998 147.8840  23.3066 12.63360722212597
GLOBALSTAR M002         
1 25164U 98008C   24145.35677800 -.00000085  00000+0 -17245-3 0  9991
2 25164  51.9983 135.1239 0001095 155.0442 205.0431 11.61503217138885
GLOBALSTAR M003         
1 25165U 98008D   24145.80897627  .00000049  00000+0  14767-2 0  9996
2 25165  51.9840 164.1824 0008037 231.4898 300.2367 12.12004761186120
GLOBALSTAR M014         
1 25306U 98023A   24145.95894115 -.00000067  00000+0  19850-3 0  9995
2 25306  51.9855  64.9987 0001362  21.8362  59.4563 11.65467944145906
GLOBALSTAR M006         
1 25307U 98023B   24145.91938605 -.00000079  00000+0 -66553-4 0  9992
2 25307  51.9926 103.0610 0003508 121.5124 271.9319 11.58163965171842
GLOBALSTAR M015         
1 25308U 98023C   24145.85623469 -.00000050  00000+0  54375-3 0  9991
2 25308  51.9790 183.8945 0012497 107.1698  63.5125 11.48852513149446
GLOBALSTAR M008         
1 25309U 98023D   24145.70073649 -.00000049  00000+0  37405-3 0  9998
2 25309  51.9967 244.3509 0002830  87.2139  59.9092 12.36043750189809
